{"type": "FeatureCollection", "features": [ {"type": "Feature", "properties": {"norad_id": 66355, "name": "STARLINK-35861", "group": "last-30-days", "lat": -6.573749510501537, "lon": 147.31273057377697, "alt_km": 376.8486683511246, "timestamp": "2025-12-03T04:52:28.419078+00:00", "meta": {"OBJECT_NAME": "STARLINK-35861", "OBJECT_ID": "2025-254H", "EPOCH": "2025-12-02T20:00:03.000384", "MEAN_MOTION": 15.66010487, "ECCENTRICITY": 0.0001213, "INCLINATION": 53.1593, "RA_OF_ASC_NODE": 324.1671, "ARG_OF_PERICENTER": 103.7686, "MEAN_ANOMALY": 159.7838, "EPHEMERIS_TYPE": 0, "CLASSIFICATION_TYPE": "U", "NORAD_CAT_ID": 66355, "ELEMENT_SET_NO": 999, "REV_AT_EPOCH": 533, "BSTAR": -0.021877, "MEAN_MOTION_DOT": -0.02005562, "MEAN_MOTION_DDOT": 0}, "tle": {"line1": "1 66355U 25254H   25336.83336806 -.02005562  00000+0 -21877-1 0  9996", "line2": "2 66355  53.1593 324.1671 0001213 103.7686 159.7838 15.66010487  5335"}}, "geometry": {"type": "Point", "coordinates": [147.31273057377697, -6.573749510501537]}}, {"type": "Feature", "properties": {"norad_id": 66356, "name": "STARLINK-35851", "group": "last-30-days", "lat": -8.10049742737087, "lon": 148.47731995106125, "alt_km": 377.0557855849047, "timestamp": "2025-12-03T04:52:28.419090+00:00", "meta": {"OBJECT_NAME": "STARLINK-35851", "OBJECT_ID": "2025-254J", "EPOCH": "2025-12-02T20:00:03.000384", "MEAN_MOTION": 15.66012853, "ECCENTRICITY": 0.0001221, "INCLINATION": 53.1594, "RA_OF_ASC_NODE": 324.1625, "ARG_OF_PERICENTER": 103.8466, "MEAN_ANOMALY": 161.6224, "EPHEMERIS_TYPE": 0, "CLASSIFICATION_TYPE": "U", "NORAD_CAT_ID": 66356, "ELEMENT_SET_NO": 999, "REV_AT_EPOCH": 533, "BSTAR": -0.021924, "MEAN_MOTION_DOT": -0.02009572, "MEAN_MOTION_DDOT": 0}, "tle": {"line1": "1 66356U 25254J   25336.83336806 -.02009572  00000+0 -21924-1 0  9995", "line2": "2 66356  53.1594 324.1625 0001221 103.8466 161.6224 15.66012853  5332"}}, "geometry": {"type": "Point", "coordinates": [148.47731995106125, -8.10049742737087]}}, {"type": "Feature", "properties": {"norad_id": 66357, "name": "STARLINK-35817", "group": "last-30-days", "lat": -9.622317213935013, "lon": 149.65019284294084, "alt_km": 377.22264577844, "timestamp": "2025-12-03T04:52:28.419100+00:00", "meta": {"OBJECT_NAME": "STARLINK-35817", "OBJECT_ID": "2025-254K", "EPOCH": "2025-12-02T20:00:03.000384", "MEAN_MOTION": 15.66012726, "ECCENTRICITY": 0.0001085, "INCLINATION": 53.1594, "RA_OF_ASC_NODE": 324.1585, "ARG_OF_PERICENTER": 107.5689, "MEAN_ANOMALY": 159.8167, "EPHEMERIS_TYPE": 0, "CLASSIFICATION_TYPE": "U", "NORAD_CAT_ID": 66357, "ELEMENT_SET_NO": 999, "REV_AT_EPOCH": 533, "BSTAR": -0.021907, "MEAN_MOTION_DOT": -0.02008044, "MEAN_MOTION_DDOT": 0}, "tle": {"line1": "1 66357U 25254K   25336.83336806 -.02008044  00000+0 -21907-1 0  9990", "line2": "2 66357  53.1594 324.1585 0001085 107.5689 159.8167 15.66012726  5338"}}, "geometry": {"type": "Point", "coordinates": [149.65019284294084, -9.622317213935013]}}, {"type": "Feature", "properties": {"norad_id": 66358, "name": "STARLINK-35807", "group": "last-30-days", "lat": -11.14172521760344, "lon": 150.83463484333797, "alt_km": 377.36599848974856, "timestamp": "2025-12-03T04:52:28.419110+00:00", "meta": {"OBJECT_NAME": "STARLINK-35807", "OBJECT_ID": "2025-254L", "EPOCH": "2025-12-02T20:00:03.000384", "MEAN_MOTION": 15.66018388, "ECCENTRICITY": 0.0001134, "INCLINATION": 53.1595, "RA_OF_ASC_NODE": 324.1542, "ARG_OF_PERICENTER": 111.8958, "MEAN_ANOMALY": 157.4037, "EPHEMERIS_TYPE": 0, "CLASSIFICATION_TYPE": "U", "NORAD_CAT_ID": 66358, "ELEMENT_SET_NO": 999, "REV_AT_EPOCH": 533, "BSTAR": -0.021989, "MEAN_MOTION_DOT": -0.02015138, "MEAN_MOTION_DDOT": 0}, "tle": {"line1": "1 66358U 25254L   25336.83336806 -.02015138  00000+0 -21989-1 0  9993", "line2": "2 66358  53.1595 324.1542 0001134 111.8958 157.4037 15.66018388  5335"}}, "geometry": {"type": "Point", "coordinates": [150.83463484333797, -11.14172521760344]}}, {"type": "Feature", "properties": {"norad_id": 66359, "name": "STARLINK-35805", "group": "last-30-days", "lat": -12.655433137625687, "lon": 152.03162408951997, "alt_km": 377.65972444551426, "timestamp": "2025-12-03T04:52:28.419121+00:00", "meta": {"OBJECT_NAME": "STARLINK-35805", "OBJECT_ID": "2025-254M", "EPOCH": "2025-12-02T20:00:03.000384", "MEAN_MOTION": 15.66012825, "ECCENTRICITY": 0.0001237, "INCLINATION": 53.1591, "RA_OF_ASC_NODE": 324.1506, "ARG_OF_PERICENTER": 101.6544, "MEAN_ANOMALY": 169.5641, "EPHEMERIS_TYPE": 0, "CLASSIFICATION_TYPE": "U", "NORAD_CAT_ID": 66359, "ELEMENT_SET_NO": 999, "REV_AT_EPOCH": 530, "BSTAR": -0.021916, "MEAN_MOTION_DOT": -0.02008935, "MEAN_MOTION_DDOT": 0}, "tle": {"line1": "1 66359U 25254M   25336.83336806 -.02008935  00000+0 -21916-1 0  9991", "line2": "2 66359  53.1591 324.1506 0001237 101.6544 169.5641 15.66012825  5306"}}, "geometry": {"type": "Point", "coordinates": [152.03162408951997, -12.655433137625687]}}, {"type": "Feature", "properties": {"norad_id": 66360, "name": "STARLINK-35823", "group": "last-30-days", "lat": -15.665170458097549, "lon": 154.46804166203697, "alt_km": 377.99122614668886, "timestamp": "2025-12-03T04:52:28.419131+00:00", "meta": {"OBJECT_NAME": "STARLINK-35823", "OBJECT_ID": "2025-254N", "EPOCH": "2025-12-02T20:00:03.000384", "MEAN_MOTION": 15.660094, "ECCENTRICITY": 0.0001207, "INCLINATION": 53.159, "RA_OF_ASC_NODE": 324.1417, "ARG_OF_PERICENTER": 103.3797, "MEAN_ANOMALY": 171.6733, "EPHEMERIS_TYPE": 0, "CLASSIFICATION_TYPE": "U", "NORAD_CAT_ID": 66360, "ELEMENT_SET_NO": 999, "REV_AT_EPOCH": 533, "BSTAR": -0.02185, "MEAN_MOTION_DOT": -0.02003304, "MEAN_MOTION_DDOT": 0}, "tle": {"line1": "1 66360U 25254N   25336.83336806 -.02003304  00000+0 -21850-1 0  9995", "line2": "2 66360  53.1590 324.1417 0001207 103.3797 171.6733 15.66009400  5338"}}, "geometry": {"type": "Point", "coordinates": [154.46804166203697, -15.665170458097549]}}, {"type": "Feature", "properties": {"norad_id": 66361, "name": "STARLINK-35813", "group": "last-30-days", "lat": -14.163196692658078, "lon": 153.24202545579482, "alt_km": 377.7879402606077, "timestamp": "2025-12-03T04:52:28.419143+00:00", "meta": {"OBJECT_NAME": "STARLINK-35813", "OBJECT_ID": "2025-254P", "EPOCH": "2025-12-02T20:00:03.000384", "MEAN_MOTION": 15.66008469, "ECCENTRICITY": 0.0001198, "INCLINATION": 53.1593, "RA_OF_ASC_NODE": 324.1467, "ARG_OF_PERICENTER": 105.8504, "MEAN_ANOMALY": 167.2864, "EPHEMERIS_TYPE": 0, "CLASSIFICATION_TYPE": "U", "NORAD_CAT_ID": 66361, "ELEMENT_SET_NO": 999, "REV_AT_EPOCH": 533, "BSTAR": -0.021837, "MEAN_MOTION_DOT": -0.02002238, "MEAN_MOTION_DDOT": 0}, "tle": {"line1": "1 66361U 25254P   25336.83336806 -.02002238  00000+0 -21837-1 0  9996", "line2": "2 66361  53.1593 324.1467 0001198 105.8504 167.2864 15.66008469  5339"}}, "geometry": {"type": "Point", "coordinates": [153.24202545579482, -14.163196692658078]}}, {"type": "Feature", "properties": {"norad_id": 66362, "name": "STARLINK-35822", "group": "last-30-days", "lat": -18.64783676319826, "lon": 156.97979366217, "alt_km": 378.2907839725285, "timestamp": "2025-12-03T04:52:28.419154+00:00", "meta": {"OBJECT_NAME": "STARLINK-35822", "OBJECT_ID": "2025-254Q", "EPOCH": "2025-12-02T20:00:03.000384", "MEAN_MOTION": 15.66012016, "ECCENTRICITY": 0.000117, "INCLINATION": 53.1592, "RA_OF_ASC_NODE": 324.1347, "ARG_OF_PERICENTER": 106.9207, "MEAN_ANOMALY": 171.9672, "EPHEMERIS_TYPE": 0, "CLASSIFICATION_TYPE": "U", "NORAD_CAT_ID": 66362, "ELEMENT_SET_NO": 999, "REV_AT_EPOCH": 533, "BSTAR": -0.021918, "MEAN_MOTION_DOT": -0.02008998, "MEAN_MOTION_DDOT": 0}, "tle": {"line1": "1 66362U 25254Q   25336.83336806 -.02008998  00000+0 -21918-1 0  9996", "line2": "2 66362  53.1592 324.1347 0001170 106.9207 171.9672 15.66012016  5330"}}, "geometry": {"type": "Point", "coordinates": [156.97979366217, -18.64783676319826]}}, {"type": "Feature", "properties": {"norad_id": 66363, "name": "STARLINK-35806", "group": "last-30-days", "lat": -17.161111359907615, "lon": 155.7142579771021, "alt_km": 378.1171049794939, "timestamp": "2025-12-03T04:52:28.419164+00:00", "meta": {"OBJECT_NAME": "STARLINK-35806", "OBJECT_ID": "2025-254R", "EPOCH": "2025-12-02T20:00:03.000384", "MEAN_MOTION": 15.66011538, "ECCENTRICITY": 0.0001181, "INCLINATION": 53.1594, "RA_OF_ASC_NODE": 324.1382, "ARG_OF_PERICENTER": 107.7656, "MEAN_ANOMALY": 169.2055, "EPHEMERIS_TYPE": 0, "CLASSIFICATION_TYPE": "U", "NORAD_CAT_ID": 66363, "ELEMENT_SET_NO": 999, "REV_AT_EPOCH": 530, "BSTAR": -0.021902, "MEAN_MOTION_DOT": -0.02007685, "MEAN_MOTION_DDOT": 0}, "tle": {"line1": "1 66363U 25254R   25336.83336806 -.02007685  00000+0 -21902-1 0  9992", "line2": "2 66363  53.1594 324.1382 0001181 107.7656 169.2055 15.66011538  5301"}}, "geometry": {"type": "Point", "coordinates": [155.7142579771021, -17.161111359907615]}}, {"type": "Feature", "properties": {"norad_id": 66364, "name": "STARLINK-35797", "group": "last-30-days", "lat": -20.12502867999655, "lon": 158.26563031740318, "alt_km": 378.386647238769, "timestamp": "2025-12-03T04:52:28.419174+00:00", "meta": {"OBJECT_NAME": "STARLINK-35797", "OBJECT_ID": "2025-254S", "EPOCH": "2025-12-02T20:00:03.000384", "MEAN_MOTION": 15.6600761, "ECCENTRICITY": 9.09e-05, "INCLINATION": 53.1592, "RA_OF_ASC_NODE": 324.13, "ARG_OF_PERICENTER": 95.7463, "MEAN_ANOMALY": 185.0616, "EPHEMERIS_TYPE": 0, "CLASSIFICATION_TYPE": "U", "NORAD_CAT_ID": 66364, "ELEMENT_SET_NO": 999, "REV_AT_EPOCH": 533, "BSTAR": -0.021845, "MEAN_MOTION_DOT": -0.02002554, "MEAN_MOTION_DDOT": 0}, "tle": {"line1": "1 66364U 25254S   25336.83336806 -.02002554  00000+0 -21845-1 0  9999", "line2": "2 66364  53.1592 324.1300 0000909  95.7463 185.0616 15.66007610  5337"}}, "geometry": {"type": "Point", "coordinates": [158.26563031740318, -20.12502867999655]}}]}